[{"OBJECT_NAME":"TIANMU-1 09","OBJECT_ID":"2023-101C","EPOCH":"2026-03-09T22:17:34.703232","MEAN_MOTION":15.29080822,"ECCENTRICITY":0.00049013,"INCLINATION":97.267,"RA_OF_ASC_NODE":121.1263,"ARG_OF_PERICENTER":139.4293,"MEAN_ANOMALY":220.7314,"EPHEMERIS_TYPE":0,"CLASSIFICATION_TYPE":"U","NORAD_CAT_ID":57401,"ELEMENT_SET_NO":999,"REV_AT_EPOCH":14647,"BSTAR":0.00030540035,"MEAN_MOTION_DOT":8.553e-5,"MEAN_MOTION_DDOT":0},{"OBJECT_NAME":"STARLINK-34896","OBJECT_ID":"2025-247Z","EPOCH":"2026-03-09T14:42:05.915808","MEAN_MOTION":15.30171297,"ECCENTRICITY":0.0001243,"INCLINATION":53.1588,"RA_OF_ASC_NODE":191.6684,"ARG_OF_PERICENTER":79.191,"MEAN_ANOMALY":280.9231,"EPHEMERIS_TYPE":0,"CLASSIFICATION_TYPE":"U","NORAD_CAT_ID":66288,"ELEMENT_SET_NO":999,"REV_AT_EPOCH":2102,"BSTAR":0.00094151,"MEAN_MOTION_DOT":0.00027604,"MEAN_MOTION_DDOT":0}]
